{
  "links" : {
    "next" : "https://api.nasa.gov/neo/rest/v1/feed?start_date=2008-07-16&end_date=2008-07-16&detailed=true&api_key=t0TVs3DtDT2H8Oy2Zy8m2eVrNsAVKAexjcZXUckd",
    "prev" : "https://api.nasa.gov/neo/rest/v1/feed?start_date=2008-07-14&end_date=2008-07-14&detailed=true&api_key=t0TVs3DtDT2H8Oy2Zy8m2eVrNsAVKAexjcZXUckd",
    "self" : "https://api.nasa.gov/neo/rest/v1/feed?start_date=2008-07-15&end_date=2008-07-15&detailed=true&api_key=t0TVs3DtDT2H8Oy2Zy8m2eVrNsAVKAexjcZXUckd"
  },
  "element_count" : 4,
  "near_earth_objects" : {
    "2008-07-15" : [ {
      "links" : {
        "self" : "https://api.nasa.gov/neo/rest/v1/neo/3414394?api_key=t0TVs3DtDT2H8Oy2Zy8m2eVrNsAVKAexjcZXUckd"
      },
      "neo_reference_id" : "3414394",
      "name" : "(2008 MP1)",
      "nasa_jpl_url" : "http://ssd.jpl.nasa.gov/sbdb.cgi?sstr=3414394",
      "absolute_magnitude_h" : 21.9,
      "estimated_diameter" : {
        "kilometers" : {
          "estimated_diameter_min" : 0.1108038821,
          "estimated_diameter_max" : 0.2477650126
        },
        "meters" : {
          "estimated_diameter_min" : 110.8038821264,
          "estimated_diameter_max" : 247.7650126055
        },
        "miles" : {
          "estimated_diameter_min" : 0.068850319,
          "estimated_diameter_max" : 0.1539539936
        },
        "feet" : {
          "estimated_diameter_min" : 363.5298086356,
          "estimated_diameter_max" : 812.8773639568
        }
      },
      "is_potentially_hazardous_asteroid" : true,
      "close_approach_data" : [ {
        "close_approach_date" : "2008-07-15",
        "epoch_date_close_approach" : 1216105200000,
        "relative_velocity" : {
          "kilometers_per_second" : "12.2563917835",
          "kilometers_per_hour" : "44123.0104205539",
          "miles_per_hour" : "27416.3227804825"
        },
        "miss_distance" : {
          "astronomical" : "0.0546716393",
          "lunar" : "21.2672672272",
          "kilometers" : "8178760.5",
          "miles" : "5082046.5"
        },
        "orbiting_body" : "Earth"
      } ],
      "orbital_data" : {
        "orbit_id" : "16",
        "orbit_determination_date" : "2017-04-06 09:03:16",
        "orbit_uncertainty" : "8",
        "minimum_orbit_intersection" : ".00167506",
        "jupiter_tisserand_invariant" : "3.745",
        "epoch_osculation" : "2454650.5",
        "eccentricity" : ".5649050127461146",
        "semi_major_axis" : "1.890231489416014",
        "inclination" : "3.784386748686066",
        "ascending_node_longitude" : "105.5143672770337",
        "orbital_period" : "949.2288244094092",
        "perihelion_distance" : ".8224302457943534",
        "perihelion_argument" : "243.3588285529781",
        "aphelion_distance" : "2.958032733037674",
        "perihelion_time" : "2454703.328255287061",
        "mean_anomaly" : "339.9646076748937",
        "mean_motion" : ".3792552340832935",
        "equinox" : "J2000"
      }
    }, {
      "links" : {
        "self" : "https://api.nasa.gov/neo/rest/v1/neo/2090367?api_key=t0TVs3DtDT2H8Oy2Zy8m2eVrNsAVKAexjcZXUckd"
      },
      "neo_reference_id" : "2090367",
      "name" : "90367 (2003 LC5)",
      "nasa_jpl_url" : "http://ssd.jpl.nasa.gov/sbdb.cgi?sstr=2090367",
      "absolute_magnitude_h" : 17.8,
      "estimated_diameter" : {
        "kilometers" : {
          "estimated_diameter_min" : 0.7320739893,
          "estimated_diameter_max" : 1.6369672047
        },
        "meters" : {
          "estimated_diameter_min" : 732.0739893473,
          "estimated_diameter_max" : 1636.96720474
        },
        "miles" : {
          "estimated_diameter_min" : 0.4548895468,
          "estimated_diameter_max" : 1.017163949
        },
        "feet" : {
          "estimated_diameter_min" : 2401.8176272101,
          "estimated_diameter_max" : 5370.6274839991
        }
      },
      "is_potentially_hazardous_asteroid" : false,
      "close_approach_data" : [ {
        "close_approach_date" : "2008-07-15",
        "epoch_date_close_approach" : 1216105200000,
        "relative_velocity" : {
          "kilometers_per_second" : "13.557153222",
          "kilometers_per_hour" : "48805.751599173",
          "miles_per_hour" : "30325.996042275"
        },
        "miss_distance" : {
          "astronomical" : "0.1584531212",
          "lunar" : "61.6382637024",
          "kilometers" : "23704250",
          "miles" : "14729138"
        },
        "orbiting_body" : "Earth"
      } ],
      "orbital_data" : {
        "orbit_id" : "105",
        "orbit_determination_date" : "2017-04-06 09:28:19",
        "orbit_uncertainty" : "0",
        "minimum_orbit_intersection" : ".151602",
        "jupiter_tisserand_invariant" : "5.319",
        "epoch_osculation" : "2458000.5",
        "eccentricity" : ".4263721747783787",
        "semi_major_axis" : "1.155597489031694",
        "inclination" : "16.87997691849466",
        "ascending_node_longitude" : "86.85424423352396",
        "orbital_period" : "453.7413001387627",
        "perihelion_distance" : ".6628828744648169",
        "perihelion_argument" : "313.8042810912485",
        "aphelion_distance" : "1.648312103598571",
        "perihelion_time" : "2457913.171851649428",
        "mean_anomaly" : "69.28647093969987",
        "mean_motion" : ".7934036418767813",
        "equinox" : "J2000"
      }
    }, {
      "links" : {
        "self" : "https://api.nasa.gov/neo/rest/v1/neo/3102756?api_key=t0TVs3DtDT2H8Oy2Zy8m2eVrNsAVKAexjcZXUckd"
      },
      "neo_reference_id" : "3102756",
      "name" : "(2002 AO11)",
      "nasa_jpl_url" : "http://ssd.jpl.nasa.gov/sbdb.cgi?sstr=3102756",
      "absolute_magnitude_h" : 22.7,
      "estimated_diameter" : {
        "kilometers" : {
          "estimated_diameter_min" : 0.0766575574,
          "estimated_diameter_max" : 0.1714115092
        },
        "meters" : {
          "estimated_diameter_min" : 76.6575573531,
          "estimated_diameter_max" : 171.4115092306
        },
        "miles" : {
          "estimated_diameter_min" : 0.0476327831,
          "estimated_diameter_max" : 0.1065101409
        },
        "feet" : {
          "estimated_diameter_min" : 251.5011804664,
          "estimated_diameter_max" : 562.3737359442
        }
      },
      "is_potentially_hazardous_asteroid" : false,
      "close_approach_data" : [ {
        "close_approach_date" : "2008-07-15",
        "epoch_date_close_approach" : 1216105200000,
        "relative_velocity" : {
          "kilometers_per_second" : "9.1766070158",
          "kilometers_per_hour" : "33035.7852568785",
          "miles_per_hour" : "20527.1522336421"
        },
        "miss_distance" : {
          "astronomical" : "0.2123388714",
          "lunar" : "82.5998153687",
          "kilometers" : "31765442",
          "miles" : "19738130"
        },
        "orbiting_body" : "Earth"
      } ],
      "orbital_data" : {
        "orbit_id" : "10",
        "orbit_determination_date" : "2017-04-06 09:15:34",
        "orbit_uncertainty" : "2",
        "minimum_orbit_intersection" : ".00385218",
        "jupiter_tisserand_invariant" : "6.481",
        "epoch_osculation" : "2458000.5",
        "eccentricity" : ".1621960789499528",
        "semi_major_axis" : ".9171413543662438",
        "inclination" : "13.06024110959747",
        "ascending_node_longitude" : "295.0406370400677",
        "orbital_period" : "320.8136523206951",
        "perihelion_distance" : ".7683846228451898",
        "perihelion_argument" : "305.9033341542667",
        "aphelion_distance" : "1.065898085887298",
        "perihelion_time" : "2458153.676955332129",
        "mean_anomaly" : "188.1129761134878",
        "mean_motion" : "1.122146758393352",
        "equinox" : "J2000"
      }
    }, {
      "links" : {
        "self" : "https://api.nasa.gov/neo/rest/v1/neo/3736203?api_key=t0TVs3DtDT2H8Oy2Zy8m2eVrNsAVKAexjcZXUckd"
      },
      "neo_reference_id" : "3736203",
      "name" : "(2015 XQ128)",
      "nasa_jpl_url" : "http://ssd.jpl.nasa.gov/sbdb.cgi?sstr=3736203",
      "absolute_magnitude_h" : 21.7,
      "estimated_diameter" : {
        "kilometers" : {
          "estimated_diameter_min" : 0.1214940408,
          "estimated_diameter_max" : 0.2716689341
        },
        "meters" : {
          "estimated_diameter_min" : 121.4940407996,
          "estimated_diameter_max" : 271.6689340891
        },
        "miles" : {
          "estimated_diameter_min" : 0.0754928736,
          "estimated_diameter_max" : 0.1688071972
        },
        "feet" : {
          "estimated_diameter_min" : 398.6025088171,
          "estimated_diameter_max" : 891.3023057169
        }
      },
      "is_potentially_hazardous_asteroid" : false,
      "close_approach_data" : [ {
        "close_approach_date" : "2008-07-15",
        "epoch_date_close_approach" : 1216105200000,
        "relative_velocity" : {
          "kilometers_per_second" : "5.843494083",
          "kilometers_per_hour" : "21036.5786987897",
          "miles_per_hour" : "13071.3119142563"
        },
        "miss_distance" : {
          "astronomical" : "0.1425149704",
          "lunar" : "55.4383239746",
          "kilometers" : "21319936",
          "miles" : "13247595"
        },
        "orbiting_body" : "Earth"
      } ],
      "orbital_data" : {
        "orbit_id" : "5",
        "orbit_determination_date" : "2017-04-06 08:30:10",
        "orbit_uncertainty" : "7",
        "minimum_orbit_intersection" : ".135627",
        "jupiter_tisserand_invariant" : "4.611",
        "epoch_osculation" : "2458000.5",
        "eccentricity" : ".2479378494022843",
        "semi_major_axis" : "1.442076654421826",
        "inclination" : "10.53374379152336",
        "ascending_node_longitude" : "89.80297887012691",
        "orbital_period" : "632.5297346650788",
        "perihelion_distance" : "1.084531270051238",
        "perihelion_argument" : "239.4808437594485",
        "aphelion_distance" : "1.799622038792415",
        "perihelion_time" : "2457866.202114690574",
        "mean_anomaly" : "76.43472877522984",
        "mean_motion" : ".5691432042963452",
        "equinox" : "J2000"
      }
    } ]
  }
}